[Satellite]
VERSION=1.1
NAME=IRIDIUM 164
NICKNAME=IRIDIUM 164
TLE1=1 43577U 18061J   20157.99465542  .00000064  00000-0  15712-4 0  9991
TLE2=2 43577  86.3986 256.9944 0002357 101.1307 259.0153 14.34215703 97772
STATUS=0
